[{"OBJECT_NAME":"STARLINK-6030","OBJECT_ID":"2023-046Q","EPOCH":"2026-03-08T14:54:09.315360","MEAN_MOTION":15.0253491,"ECCENTRICITY":0.00011807,"INCLINATION":43.0021,"RA_OF_ASC_NODE":164.5463,"ARG_OF_PERICENTER":256.1191,"MEAN_ANOMALY":103.952,"EPHEMERIS_TYPE":0,"CLASSIFICATION_TYPE":"U","NORAD_CAT_ID":56107,"ELEMENT_SET_NO":999,"REV_AT_EPOCH":16190,"BSTAR":3.118355e-6,"MEAN_MOTION_DOT":-1.61e-6,"MEAN_MOTION_DDOT":0},{"OBJECT_NAME":"DELTA 1 DEB","OBJECT_ID":"1977-118C","EPOCH":"2026-03-09T07:30:01.620864","MEAN_MOTION":13.30512983,"ECCENTRICITY":0.08123752,"INCLINATION":29.055,"RA_OF_ASC_NODE":100.7737,"ARG_OF_PERICENTER":101.0865,"MEAN_ANOMALY":268.2043,"EPHEMERIS_TYPE":0,"CLASSIFICATION_TYPE":"U","NORAD_CAT_ID":10519,"ELEMENT_SET_NO":999,"REV_AT_EPOCH":32297,"BSTAR":0.00016439903,"MEAN_MOTION_DOT":6.17e-6,"MEAN_MOTION_DDOT":0}]
